$$SOE
2461295.500000000, A.D. 2026-Sep-12 00:00:00.0000, 3.329916521843765E+08, -7.076196608601636E+07, -6.497590037805687E+07,
2461302.500000000, A.D. 2026-Sep-19 00:00:00.0000, 3.339920260968918E+08, -5.856484876784814E+07, -6.263641285032161E+07,
2461309.500000000, A.D. 2026-Sep-26 00:00:00.0000, 3.345970000159257E+08, -4.629845824826965E+07, -6.022277559636215E+07,
2461316.500000000, A.D. 2026-Oct-03 00:00:00.0000, 3.347998971390621E+08, -3.397649360823437E+07, -5.773677348780319E+07,
2461323.500000000, A.D. 2026-Oct-10 00:00:00.0000, 3.345945258906379E+08, -2.161316044233048E+07, -5.518036843558340E+07,
2461330.500000000, A.D. 2026-Oct-17 00:00:00.0000, 3.339752235330832E+08, -9.223155374759177E+06, -5.255570284925471E+07,
2461337.500000000, A.D. 2026-Oct-24 00:00:00.0000, 3.329369001657651E+08, 3.178353104710609E+06, -4.986510239172252E+07,
2461344.500000000, A.D. 2026-Oct-31 00:00:00.0000, 3.314750828782492E+08, 1.557574759934588E+07, -4.711107796038507E+07,
2461351.500000000, A.D. 2026-Nov-07 00:00:00.0000, 3.295859600292494E+08, 2.795298877559689E+07, -4.429632683655857E+07,
2461358.500000000, A.D. 2026-Nov-14 00:00:00.0000, 3.272664254413670E+08, 4.029364733628549E+07, -4.142373286499026E+07,
2461365.500000000, A.D. 2026-Nov-21 00:00:00.0000, 3.245141202579297E+08, 5.258094174574607E+07, -3.849636535997452E+07,
2461372.500000000, A.D. 2026-Nov-28 00:00:00.0000, 3.213274710014415E+08, 6.479777871372427E+07, -3.551747681755472E+07,
2461379.500000000, A.D. 2026-Dec-05 00:00:00.0000, 3.177057269582938E+08, 7.692679573803514E+07, -3.249049975074869E+07,
2461386.500000000, A.D. 2026-Dec-12 00:00:00.0000, 3.136489965380344E+08, 8.895040871998072E+07, -2.941904234885317E+07,
2461393.500000000, A.D. 2026-Dec-19 00:00:00.0000, 3.091582802010632E+08, 1.008508645008224E+08, -2.630688274052266E+07,
2461400.500000000, A.D. 2026-Dec-26 00:00:00.0000, 3.042354992973495E+08, 1.126102972248413E+08, -2.315796188646967E+07,
2461407.500000000, A.D. 2027-Jan-02 00:00:00.0000, 2.988835205875425E+08, 1.242107880418200E+08, -1.997637512656775E+07,
2461414.500000000, A.D. 2027-Jan-09 00:00:00.0000, 2.931061760795361E+08, 1.356344278032435E+08, -1.676636239176628E+07,
2461421.500000000, A.D. 2027-Jan-16 00:00:00.0000, 2.869082777634752E+08, 1.468633823271478E+08, -1.353229710348858E+07,
2461428.500000000, A.D. 2027-Jan-23 00:00:00.0000, 2.802956268818309E+08, 1.578799596936011E+08, -1.027867380796548E+07,
2461435.500000000, A.D. 2027-Jan-30 00:00:00.0000, 2.732750175680442E+08, 1.686666789653411E+08, -7.010094627129152E+06,
2461442.500000000, A.D. 2027-Feb-06 00:00:00.0000, 2.658542349901505E+08, 1.792063400607397E+08, -3.731254618582904E+06,
2461449.500000000, A.D. 2027-Feb-13 00:00:00.0000, 2.580420473178595E+08, 1.894820953359315E+08, -4.469260044043362E+05,
2461456.500000000, A.D. 2027-Feb-20 00:00:00.0000, 2.498481890035541E+08, 1.994775213964767E+08, 2.838058763208658E+06,
2461463.500000000, A.D. 2027-Feb-27 00:00:00.0000, 2.412833367339122E+08, 2.091766872234698E+08, 6.118824570441395E+06,
2461470.500000000, A.D. 2027-Mar-06 00:00:00.0000, 2.323590811250777E+08, 2.185642198128518E+08, 9.390471569570720E+06,
2461477.500000000, A.D. 2027-Mar-13 00:00:00.0000, 2.230878926988522E+08, 2.276253686565713E+08, 1.264809361190215E+07,
2461484.500000000, A.D. 2027-Mar-20 00:00:00.0000, 2.134830812457931E+08, 2.363460675349505E+08, 1.588679704282211E+07,
2461491.500000000, A.D. 2027-Mar-27 00:00:00.0000, 2.035587491088794E+08, 2.447129924094342E+08, 1.910171960973489E+07,
2461498.500000000, A.D. 2027-Apr-03 00:00:00.0000, 1.933297390109018E+08, 2.527136147526485E+08, 2.228804927075385E+07,
2461505.500000000, A.D. 2027-Apr-10 00:00:00.0000, 1.828115769878838E+08, 2.603362497830780E+08, 2.544104271074960E+07,
2461512.500000000, A.D. 2027-Apr-17 00:00:00.0000, 1.720204110231015E+08, 2.675700991054147E+08, 2.855604337558702E+07,
2461519.500000000, A.D. 2027-Apr-24 00:00:00.0000, 1.609729460935793E+08, 2.744052872907766E+08, 3.162849883361679E+07,
2461526.500000000, A.D. 2027-May-01 00:00:00.0000, 1.496863766092017E+08, 2.808328921105239E+08, 3.465397727169240E+07,
2461533.500000000, A.D. 2027-May-08 00:00:00.0000, 1.381783172689705E+08, 2.868449689530429E+08, 3.762818300547327E+07,
2461540.500000000, A.D. 2027-May-15 00:00:00.0000, 1.264667315757844E+08, 2.924345702465652E+08, 4.054697108123364E+07,
2461547.500000000, A.D. 2027-May-22 00:00:00.0000, 1.145698571766665E+08, 2.975957572561488E+08, 4.340636078051035E+07,
2461554.500000000, A.D. 2027-May-29 00:00:00.0000, 1.025061321080910E+08, 3.023236028603479E+08, 4.620254750437191E+07,
2461561.500000000, A.D. 2027-Jun-05 00:00:00.0000, 9.029412354633334E+07, 3.066141886003650E+08, 4.893191313805388E+07,
2461568.500000000, A.D. 2027-Jun-12 00:00:00.0000, 7.795245772749375E+07, 3.104645966652501E+08, 5.159103506136073E+07,
2461575.500000000, A.D. 2027-Jun-19 00:00:00.0000, 6.549975132869285E+07, 3.138728961885651E+08, 5.417669372823590E+07,
2461582.500000000, A.D. 2027-Jun-26 00:00:00.0000, 5.295454516001213E+07, 3.168381239734159E+08, 5.668587876046596E+07,
2461589.500000000, A.D. 2027-Jul-03 00:00:00.0000, 4.033524080930153E+07, 3.193602600851754E+08, 5.911579355605654E+07,
2461596.500000000, A.D. 2027-Jul-10 00:00:00.0000, 2.766004071930931E+07, 3.214401987906899E+08, 6.146385843874462E+07,
2461603.500000000, A.D. 2027-Jul-17 00:00:00.0000, 1.494689210172448E+07, 3.230797153025834E+08, 6.372771238605471E+07,
2461610.500000000, A.D. 2027-Jul-24 00:00:00.0000, 2.213435133438407E+06, 3.242814287838768E+08, 6.590521337494206E+07,
2461617.500000000, A.D. 2027-Jul-31 00:00:00.0000, -1.052304394268962E+07, 3.250487623837012E+08, 6.799443740132175E+07,
2461624.500000000, A.D. 2027-Aug-07 00:00:00.0000, -2.324565487122937E+07, 3.253859020028469E+08, 6.999367637703979E+07,
2461631.500000000, A.D. 2027-Aug-14 00:00:00.0000, -3.593794280662041E+07, 3.252977540761607E+08, 7.190143519544576E+07,
2461638.500000000, A.D. 2027-Aug-21 00:00:00.0000, -4.858392446002120E+07, 3.247898995146850E+08, 7.371642773545124E+07,
2461645.500000000, A.D. 2027-Aug-28 00:00:00.0000, -6.116811758103288E+07, 3.238685454969623E+08, 7.543757169401468E+07,
2461652.500000000, A.D. 2027-Sep-04 00:00:00.0000, -7.367556504196997E+07, 3.225404780769739E+08, 7.706398266905104E+07,
2461659.500000000, A.D. 2027-Sep-11 00:00:00.0000, -8.609185504913385E+07, 3.208130153673321E+08, 7.859496767145315E+07,
2461666.500000000, A.D. 2027-Sep-18 00:00:00.0000, -9.840313752054419E+07, 3.186939610277510E+08, 8.003001810348518E+07,
2461673.500000000, A.D. 2027-Sep-25 00:00:00.0000, -1.105961366067083E+08, 3.161915583249519E+08, 8.136880227671526E+07,
2461680.500000000, A.D. 2027-Oct-02 00:00:00.0000, -1.226581595093548E+08, 3.133144450963411E+08, 8.261115756139064E+07,
2461687.500000000, A.D. 2027-Oct-09 00:00:00.0000, -1.345771018239626E+08, 3.100716098775077E+08, 8.375708225608027E+07,
2461694.500000000, A.D. 2027-Oct-16 00:00:00.0000, -1.463414496038662E+08, 3.064723493632654E+08, 8.480672725241159E+07,
2461701.500000000, A.D. 2027-Oct-23 00:00:00.0000, -1.579402781545687E+08, 3.025262273822572E+08, 8.576038754896659E+07,
2461708.500000000, A.D. 2027-Oct-30 00:00:00.0000, -1.693632474556260E+08, 2.982430361443107E+08, 8.661849370133549E+07,
2461715.500000000, A.D. 2027-Nov-06 00:00:00.0000, -1.806005956459749E+08, 2.936327610052545E+08, 8.738160347254454E+07,
2461722.500000000, A.D. 2027-Nov-13 00:00:00.0000, -1.916431328228740E+08, 2.887055467604101E+08, 8.805039375463952E+07,
2461729.500000000, A.D. 2027-Nov-20 00:00:00.0000, -2.024822325041279E+08, 2.834716633311800E+08, 8.862565236432400E+07,
2461736.500000000, A.D. 2027-Nov-27 00:00:00.0000, -2.131098193858541E+08, 2.779414738306340E+08, 8.910826984841061E+07,
2461743.500000000, A.D. 2027-Dec-04 00:00:00.0000, -2.235183556597965E+08, 2.721254059312437E+08, 8.949923159860560E+07,
2461750.500000000, A.D. 2027-Dec-11 00:00:00.0000, -2.337008266611295E+08, 2.660339255587553E+08, 8.979961027863684E+07,
2461757.500000000, A.D. 2027-Dec-18 00:00:00.0000, -2.436507257773226E+08, 2.596775125395198E+08, 9.001055853505692E+07,
2461764.500000000, A.D. 2027-Dec-25 00:00:00.0000, -2.533620386579148E+08, 2.530666381508974E+08, 9.013330199695776E+07,
2461771.500000000, A.D. 2028-Jan-01 00:00:00.0000, -2.628292268604903E+08, 2.462117445297004E+08, 9.016913257686575E+07,
$$EOE